LEMUR-2-ROUNDTRIPPER    
1 62711U 25009DG  26199.76156273  .00003847  00000+0  28090-3 0  9990
2 62711  97.7243 282.4037 0004485  57.6455 302.5204 15.04262462 82378
LEMUR-2-MYNAMEISJEFF    
1 62712U 25009DH  26199.76007179  .00003875  00000+0  28304-3 0  9990
2 62712  97.7292 282.8025 0004339  90.3716 269.8007 15.04253607 82373
LEMUR-2-LEIA-PHILIP     
1 63246U 25052AN  26199.67832972 -.00000006  00000+0  43895-5 0  9996
2 63246  97.6795  91.0948 0005040 112.1751 248.0006 14.97392473 73384
LEMUR-2-LIA-MARTIN      
1 63248U 25052AQ  26199.27061340  .00001371  00000+0  12086-3 0  9998
2 63248  97.6856  91.2182 0005095  82.8339 277.3462 14.98040971 73331
LEMUR-2-DELOITTE-1      
1 63259U 25052BB  26199.85283183  .00002394  00000+0  20875-3 0  9996
2 63259  97.6885  92.1212 0002543  59.7870 300.3604 14.97799936 73434
LEMUR-2-EMERSONROSE     
1 63261U 25052BD  26199.52963754  .00002218  00000+0  18642-3 0  9996
2 63261  97.6882  92.4238 0002537  54.1024 306.0435 14.99307574 73438
LEMUR-2-MARACHE-FRAN    
1 63262U 25052BE  26199.68346648  .00001577  00000+0  13045-3 0  9990
2 63262  97.6820  92.9461 0005607 238.5263 121.5413 15.00327527 73482
LEMUR-2-THEFALCONER     
1 63264U 25052BG  26199.68338382  .00001030  00000+0  93164-4 0  9993
2 63264  97.6818  91.5411 0000539 237.8231 122.2939 14.97570780 73406
LEMUR-2-UNTITLED-SC     
1 63351U 25061A   26199.88793216  .00001770  00000+0  10174-3 0  9993
2 63351  97.5660 175.0260 0019553 150.7612 209.4718 15.13659594 72388
LEMUR-2-ESPERANZA       
1 63352U 25061B   26199.66470058  .00001643  00000+0  94438-4 0  9991
2 63352  97.5666 174.9054 0019152 150.8253 209.4052 15.13764405 72357
LEMUR-2-KREMPEL-BRO2    
1 63353U 25061C   26199.81486259  .00001869  00000+0  10561-3 0  9993
2 63353  97.5710 175.6282 0020282 143.3133 216.9492 15.14192720 72390
LEMUR-2-THERMORAPTOR    
1 63354U 25061D   26199.86130197  .00001852  00000+0  10447-3 0  9991
2 63354  97.5718 175.7562 0020023 142.1235 218.1410 15.14275787 72405
LEMUR-2-NEUROSPICY      
1 63355U 25061E   26199.83052852  .00001847  00000+0  10396-3 0  9997
2 63355  97.5646 175.3272 0017799 145.0136 215.2268 15.14394488 72407
LEMUR-2-TILLINFINITY    
1 63356U 25061F   26199.78754897  .00001958  00000+0  10811-3 0  9995
2 63356  97.5630 175.5972 0019293 134.1906 226.0915 15.14979073 72425
LEMUR-2-KREMPEL-BRO1    
1 63357U 25061G   26199.83111551  .00001863  00000+0  10356-3 0  9995
2 63357  97.5632 175.5476 0019968 135.4370 224.8472 15.14785725 72428
LEMUR-2-LANGER2SPACE    
1 63358U 25061H   26199.86397661  .00001870  00000+0  10494-3 0  9998
2 63358  97.5636 175.3817 0017704 143.2833 216.9615 15.14479414 72412
LEMUR-2-BALTO           
1 63395U 25052BH  26199.26755964  .00002228  00000+0  18215-3 0  9994
2 63395  97.6922  92.5277 0005017 314.5167  45.5646 15.00379070 73423
LEMUR-2-KRISH           
1 64561U 25135AK  26199.77115358  .00001823  00000+0  16579-3 0  9996
2 64561  97.7766 314.4387 0001124 102.7464 257.3883 14.96461546 58643
LEMUR-2-HUBBLE-4        
1 64565U 25135AP  26199.82562204  .00000429  00000+0  45886-4 0  9997
2 64565  97.7722 313.3664 0002953 153.5676 206.5694 14.93691222 58598
LEMUR-2-SEJONG-2        
1 64586U 25135BL  26199.79108207  .00002288  00000+0  20427-3 0  9993
2 64586  97.7709 314.6039 0004189 201.5110 158.5936 14.96928231 58676
LEMUR-2-HUBBLE-5        
1 64840U 25135BT  26199.76621138  .00000317  00000+0  34908-4 0  9997
2 64840  97.7742 313.9807 0004586 220.8209 139.2669 14.94217886 58624
LEMUR-2-KARENDARRELL    
1 64841U 25135BU  26199.79746657  .00003933  00000+0  31621-3 0  9990
2 64841  97.7722 315.9668 0012765  93.8513 266.4171 15.00528659 58750
LEMUR-2-LUCILLE-ROSE    
1 65403U 25135BV  26199.57089867  .00003070  00000+0  24788-3 0  9992
2 65403  97.7705 315.7752 0015273 178.9427 181.1832 15.00510880 53348
LEMUR-2-AFFIE-WAUWIE    
1 66295U 25248C   26199.57223625  .00012349  00000+0  44883-3 0  9996
2 66295  45.3903 304.7895 0009040 269.7591  90.2263 15.28344711 39394
OTTER SDM               
1 66678U 25276N   26199.71791638  .00002774  00000+0  13166-3 0  9993
2 66678  97.4196 272.6757 0004479 237.4406 122.6396 15.20079289 35209
LEMUR-2-STAS-GORBUK     
1 66686U 25276W   26199.74027426  .00002629  00000+0  12640-3 0  9997
2 66686  97.4231 272.7490 0003828 230.7972 129.2923 15.19678012 35200
LEMUR-2-TEODOR          
1 66768U 25276DG  26199.68936816  .00002814  00000+0  12869-3 0  9992
2 66768  97.4137 272.9752 0002182  85.2409 274.9076 15.21357820 35233
LEMUR-2-LAILA           
1 66776U 25276DQ  26199.72441347  .00002762  00000+0  12555-3 0  9990
2 66776  97.4160 273.1506 0002868  89.1323 271.0242 15.21584359 35240
LEMUR-2-CELIJO-SB-PK    
1 66781U 25276DW  26199.71973042  .00002886  00000+0  23474-3 0  9996
2 66781  97.5187 269.4564 0006766  55.8337 304.3528 15.00305865 27354
LEMUR-2-FINNIAN         
1 66782U 25276DX  26199.75590196  .00001326  00000+0  10940-3 0  9998
2 66782  97.5360 269.7672 0007114 347.4138  12.6908 15.00638130 24732
